COSMOS 2361 [-]         
1 25590U 98076A   23026.58167385  .00000083  00000+0  73814-4 0  9994
2 25590  82.9325  41.2216 0030412 309.9944 169.1286 13.73042288206858
COSMOS 2378 [-]         
1 26818U 01023A   23026.62371289  .00000073  00000+0  62327-4 0  9995
2 26818  82.9254  58.8268 0031646 252.8870 224.2372 13.73986368 84880
COSMOS 2389 [-]         
1 27436U 02026A   23026.48251236  .00000086  00000+0  73101-4 0  9995
2 27436  82.9517   4.9587 0047652 112.7189   6.8300 13.74994457 37013
COSMOS 2398 [-]         
1 27818U 03023A   23026.34126244  .00000086  00000+0  76986-4 0  9996
2 27818  82.9512 327.3849 0031878 150.6954 323.8757 13.72229133983950
COSMOS 2407 [+]         
1 28380U 04028A   23026.10425432  .00000083  00000+0  69262-4 0  9998
2 28380  82.9597 271.5804 0040365 114.0172  57.7240 13.76134547929572
COSMOS 2414 [+]         
1 28521U 05002A   23026.12448376  .00000094  00000+0  66071-4 0  9999
2 28521  82.9481 259.8744 0038965 259.1263 100.5514 13.87681873912123
COSMOS 2429 [-]         
1 32052U 07038A   23026.55856183  .00000069  00000+0  56101-4 0  9995
2 32052  82.9791  37.9259 0039883  91.3350 269.2375 13.74981892771569
COSMOS 2454 [-]         
1 35635U 09039A   23026.57916551  .00000082  00000+0  53826-4 0  9992
2 35635  82.9539 245.4611 0018801 196.6070 220.9751 13.89710623685498
COSMOS 2463 [+]         
1 36519U 10017A   23026.68794785  .00000069  00000+0  59836-4 0  9999
2 36519  82.9585  78.8512 0035298 325.4525 154.8414 13.71491868638380
